PROBA-1                 
1 26958U 01049B   26065.90225551  .00002986  00000+0  19684-3 0  9997
2 26958  97.9623  70.8825 0056882 108.2600 252.4828 15.07002164328217
CUTE-1 (CO-55)          
1 27844U 03031E   26065.47274805  .00000476  00000+0  22533-3 0  9992
2 27844  98.6780  75.3114 0010574 120.8066 239.4155 14.24263129177059
CUBESAT XI-IV (CO-57)   
1 27848U 03031J   26065.48029571  .00000387  00000+0  18933-3 0  9995
2 27848  98.6809  75.1140 0010251 137.2488 222.9489 14.23558642176764
APRIZESAT 4             
1 35684U 09041D   26065.14798102  .00001000  00000+0  12625-3 0  9990
2 35684  98.1492 138.3975 0042211 296.5139  63.1748 14.83699785896082
APRIZESAT 3             
1 35686U 09041F   26065.83494550  .00002741  00000+0  24132-3 0  9997
2 35686  98.1899 214.2676 0063121  46.0435 314.5967 14.95889516901075
PROBA-2                 
1 36037U 09059B   26065.83142891  .00000439  00000+0  11294-3 0  9992
2 36037  98.2428 250.6044 0012219 233.7411 126.2658 14.54789095866643
APRIZESAT 5             
1 37792U 11044E   26065.57988650  .00002105  00000+0  27406-3 0  9994
2 37792  98.2402 355.7657 0051926 334.6195  25.2467 14.80846140783603
APRIZESAT 6             
1 37793U 11044F   26065.52274729  .00001376  00000+0  20124-3 0  9994
2 37793  98.2420 333.9100 0044400  55.3828 120.7989 14.76744408781993
PROBA-V                 
1 39159U 13021A   26065.36203385  .00000120  00000+0  70463-4 0  9999
2 39159  98.3502  49.0926 0005358  77.5055 282.6724 14.23572682666487
APRIZESAT 7             
1 39416U 13066A   26065.37032686  .00001976  00000+0  20189-3 0  9998
2 39416  97.7598  20.1600 0035575 189.7319 170.3214 14.91270640665900
APRIZESAT 8             
1 39425U 13066K   26065.82916193  .00001916  00000+0  21427-3 0  9992
2 39425  97.8115  14.8093 0044587 262.6906  96.9242 14.87414468664454
BUGSAT-1 (TITA)         
1 40014U 14033E   26065.86340142  .00005892  00000+0  32122-3 0  9993
2 40014  98.0430 152.5272 0029053 167.9197 192.2736 15.14447796640343
SAUDISAT 4              
1 40016U 14033G   26065.65447111  .00001195  00000+0  16430-3 0  9992
2 40016  97.7406 215.4349 0045911  48.3897 312.1234 14.79383543630915
APRIZESAT 9             
1 40018U 14033J   26065.37430920  .00001495  00000+0  22692-3 0  9993
2 40018  97.8875 201.1944 0066610 169.7785 190.4796 14.74064970628411
APRIZESAT 10            
1 40019U 14033K   26065.80959450  .00001175  00000+0  19216-3 0  9999
2 40019  97.9474 195.1588 0077858 240.2283 119.1163 14.70745984627207
TECHDEMOSAT-1 (TDS-1)   
1 40076U 14037H   26065.87723420  .00014148  00000+0  83870-3 0  9990
2 40076  98.3778  48.1225 0004533 249.7402 110.3338 15.11500359632769
TECHNOSAT               
1 42829U 17042E   26065.43483603  .00005080  00000+0  36782-3 0  9990
2 42829  97.4152 227.1244 0019780  85.9326 274.4161 15.04252312471254
