[{"OBJECT_NAME":"PROBA-1","OBJECT_ID":"2001-049B","EPOCH":"2026-03-06T21:39:14.876064","MEAN_MOTION":15.07002164,"ECCENTRICITY":0.0056882,"INCLINATION":97.9623,"RA_OF_ASC_NODE":70.8825,"ARG_OF_PERICENTER":108.26,"MEAN_ANOMALY":252.4828,"EPHEMERIS_TYPE":0,"CLASSIFICATION_TYPE":"U","NORAD_CAT_ID":26958,"ELEMENT_SET_NO":999,"REV_AT_EPOCH":32821,"BSTAR":0.00019684,"MEAN_MOTION_DOT":2.986e-5,"MEAN_MOTION_DDOT":0},{"OBJECT_NAME":"CUTE-1 (CO-55)","OBJECT_ID":"2003-031E","EPOCH":"2026-03-06T11:20:45.431520","MEAN_MOTION":14.24263129,"ECCENTRICITY":0.0010574,"INCLINATION":98.678,"RA_OF_ASC_NODE":75.3114,"ARG_OF_PERICENTER":120.8066,"MEAN_ANOMALY":239.4155,"EPHEMERIS_TYPE":0,"CLASSIFICATION_TYPE":"U","NORAD_CAT_ID":27844,"ELEMENT_SET_NO":999,"REV_AT_EPOCH":17705,"BSTAR":0.00022533316,"MEAN_MOTION_DOT":4.76e-6,"MEAN_MOTION_DDOT":0},{"OBJECT_NAME":"CUBESAT XI-IV (CO-57)","OBJECT_ID":"2003-031J","EPOCH":"2026-03-06T11:31:37.549344","MEAN_MOTION":14.23558642,"ECCENTRICITY":0.00102519,"INCLINATION":98.6809,"RA_OF_ASC_NODE":75.114,"ARG_OF_PERICENTER":137.2488,"MEAN_ANOMALY":222.9489,"EPHEMERIS_TYPE":0,"CLASSIFICATION_TYPE":"U","NORAD_CAT_ID":27848,"ELEMENT_SET_NO":999,"REV_AT_EPOCH":17676,"BSTAR":0.00018932522,"MEAN_MOTION_DOT":3.87e-6,"MEAN_MOTION_DDOT":0},{"OBJECT_NAME":"APRIZESAT 4","OBJECT_ID":"2009-041D","EPOCH":"2026-03-06T03:33:05.560128","MEAN_MOTION":14.83699785,"ECCENTRICITY":0.00422118,"INCLINATION":98.1492,"RA_OF_ASC_NODE":138.3975,"ARG_OF_PERICENTER":296.5139,"MEAN_ANOMALY":63.1748,"EPHEMERIS_TYPE":0,"CLASSIFICATION_TYPE":"U","NORAD_CAT_ID":35684,"ELEMENT_SET_NO":999,"REV_AT_EPOCH":89608,"BSTAR":0.00012624797,"MEAN_MOTION_DOT":1.0e-5,"MEAN_MOTION_DDOT":0},{"OBJECT_NAME":"APRIZESAT 3","OBJECT_ID":"2009-041F","EPOCH":"2026-03-06T20:02:19.291200","MEAN_MOTION":14.95889516,"ECCENTRICITY":0.0063121,"INCLINATION":98.1899,"RA_OF_ASC_NODE":214.2676,"ARG_OF_PERICENTER":46.0435,"MEAN_ANOMALY":314.5967,"EPHEMERIS_TYPE":0,"CLASSIFICATION_TYPE":"U","NORAD_CAT_ID":35686,"ELEMENT_SET_NO":999,"REV_AT_EPOCH":90107,"BSTAR":0.00024132,"MEAN_MOTION_DOT":2.741e-5,"MEAN_MOTION_DDOT":0},{"OBJECT_NAME":"PROBA-2","OBJECT_ID":"2009-059B","EPOCH":"2026-03-06T19:57:15.457824","MEAN_MOTION":14.54789095,"ECCENTRICITY":0.0012219,"INCLINATION":98.2428,"RA_OF_ASC_NODE":250.6044,"ARG_OF_PERICENTER":233.7411,"MEAN_ANOMALY":126.2658,"EPHEMERIS_TYPE":0,"CLASSIFICATION_TYPE":"U","NORAD_CAT_ID":36037,"ELEMENT_SET_NO":999,"REV_AT_EPOCH":86664,"BSTAR":0.00011294,"MEAN_MOTION_DOT":4.39e-6,"MEAN_MOTION_DDOT":0},{"OBJECT_NAME":"APRIZESAT 5","OBJECT_ID":"2011-044E","EPOCH":"2026-03-06T13:55:02.193600","MEAN_MOTION":14.8084614,"ECCENTRICITY":0.00519264,"INCLINATION":98.2402,"RA_OF_ASC_NODE":355.7657,"ARG_OF_PERICENTER":334.6195,"MEAN_ANOMALY":25.2467,"EPHEMERIS_TYPE":0,"CLASSIFICATION_TYPE":"U","NORAD_CAT_ID":37792,"ELEMENT_SET_NO":999,"REV_AT_EPOCH":78360,"BSTAR":0.0002740608,"MEAN_MOTION_DOT":2.105e-5,"MEAN_MOTION_DDOT":0},{"OBJECT_NAME":"APRIZESAT 6","OBJECT_ID":"2011-044F","EPOCH":"2026-03-06T12:32:45.365856","MEAN_MOTION":14.76744408,"ECCENTRICITY":0.00444006,"INCLINATION":98.242,"RA_OF_ASC_NODE":333.91,"ARG_OF_PERICENTER":55.3828,"MEAN_ANOMALY":120.7989,"EPHEMERIS_TYPE":0,"CLASSIFICATION_TYPE":"U","NORAD_CAT_ID":37793,"ELEMENT_SET_NO":999,"REV_AT_EPOCH":78199,"BSTAR":0.00020123572,"MEAN_MOTION_DOT":1.376e-5,"MEAN_MOTION_DDOT":0},{"OBJECT_NAME":"PROBA-V","OBJECT_ID":"2013-021A","EPOCH":"2026-03-06T08:41:19.724640","MEAN_MOTION":14.23572682,"ECCENTRICITY":0.00053589,"INCLINATION":98.3502,"RA_OF_ASC_NODE":49.0926,"ARG_OF_PERICENTER":77.5055,"MEAN_ANOMALY":282.6724,"EPHEMERIS_TYPE":0,"CLASSIFICATION_TYPE":"U","NORAD_CAT_ID":39159,"ELEMENT_SET_NO":999,"REV_AT_EPOCH":66648,"BSTAR":7.046347e-5,"MEAN_MOTION_DOT":1.2e-6,"MEAN_MOTION_DDOT":0},{"OBJECT_NAME":"APRIZESAT 7","OBJECT_ID":"2013-066A","EPOCH":"2026-03-06T08:53:16.240704","MEAN_MOTION":14.9127064,"ECCENTRICITY":0.00355759,"INCLINATION":97.7598,"RA_OF_ASC_NODE":20.16,"ARG_OF_PERICENTER":189.7319,"MEAN_ANOMALY":170.3214,"EPHEMERIS_TYPE":0,"CLASSIFICATION_TYPE":"U","NORAD_CAT_ID":39416,"ELEMENT_SET_NO":999,"REV_AT_EPOCH":66590,"BSTAR":0.0002018936,"MEAN_MOTION_DOT":1.976e-5,"MEAN_MOTION_DDOT":0},{"OBJECT_NAME":"APRIZESAT 8","OBJECT_ID":"2013-066K","EPOCH":"2026-03-06T19:53:59.590752","MEAN_MOTION":14.87414468,"ECCENTRICITY":0.0044587,"INCLINATION":97.8115,"RA_OF_ASC_NODE":14.8093,"ARG_OF_PERICENTER":262.6906,"MEAN_ANOMALY":96.9242,"EPHEMERIS_TYPE":0,"CLASSIFICATION_TYPE":"U","NORAD_CAT_ID":39425,"ELEMENT_SET_NO":999,"REV_AT_EPOCH":66445,"BSTAR":0.00021427,"MEAN_MOTION_DOT":1.916e-5,"MEAN_MOTION_DDOT":0},{"OBJECT_NAME":"BUGSAT-1 (TITA)","OBJECT_ID":"2014-033E","EPOCH":"2026-03-06T20:43:17.882688","MEAN_MOTION":15.14447796,"ECCENTRICITY":0.0029053,"INCLINATION":98.043,"RA_OF_ASC_NODE":152.5272,"ARG_OF_PERICENTER":167.9197,"MEAN_ANOMALY":192.2736,"EPHEMERIS_TYPE":0,"CLASSIFICATION_TYPE":"U","NORAD_CAT_ID":40014,"ELEMENT_SET_NO":999,"REV_AT_EPOCH":64034,"BSTAR":0.00032122,"MEAN_MOTION_DOT":5.892e-5,"MEAN_MOTION_DDOT":0},{"OBJECT_NAME":"SAUDISAT 4","OBJECT_ID":"2014-033G","EPOCH":"2026-03-06T15:42:26.303904","MEAN_MOTION":14.79383543,"ECCENTRICITY":0.00459112,"INCLINATION":97.7406,"RA_OF_ASC_NODE":215.4349,"ARG_OF_PERICENTER":48.3897,"MEAN_ANOMALY":312.1234,"EPHEMERIS_TYPE":0,"CLASSIFICATION_TYPE":"U","NORAD_CAT_ID":40016,"ELEMENT_SET_NO":999,"REV_AT_EPOCH":63091,"BSTAR":0.00016429601,"MEAN_MOTION_DOT":1.195e-5,"MEAN_MOTION_DDOT":0},{"OBJECT_NAME":"APRIZESAT 9","OBJECT_ID":"2014-033J","EPOCH":"2026-03-06T08:59:00.314880","MEAN_MOTION":14.7406497,"ECCENTRICITY":0.00666108,"INCLINATION":97.8875,"RA_OF_ASC_NODE":201.1944,"ARG_OF_PERICENTER":169.7785,"MEAN_ANOMALY":190.4796,"EPHEMERIS_TYPE":0,"CLASSIFICATION_TYPE":"U","NORAD_CAT_ID":40018,"ELEMENT_SET_NO":999,"REV_AT_EPOCH":62841,"BSTAR":0.00022692025,"MEAN_MOTION_DOT":1.495e-5,"MEAN_MOTION_DDOT":0},{"OBJECT_NAME":"APRIZESAT 10","OBJECT_ID":"2014-033K","EPOCH":"2026-03-06T19:25:48.964800","MEAN_MOTION":14.70745984,"ECCENTRICITY":0.0077858,"INCLINATION":97.9474,"RA_OF_ASC_NODE":195.1588,"ARG_OF_PERICENTER":240.2283,"MEAN_ANOMALY":119.1163,"EPHEMERIS_TYPE":0,"CLASSIFICATION_TYPE":"U","NORAD_CAT_ID":40019,"ELEMENT_SET_NO":999,"REV_AT_EPOCH":62720,"BSTAR":0.00019216,"MEAN_MOTION_DOT":1.175e-5,"MEAN_MOTION_DDOT":0},{"OBJECT_NAME":"TECHDEMOSAT-1 (TDS-1)","OBJECT_ID":"2014-037H","EPOCH":"2026-03-06T21:03:13.034880","MEAN_MOTION":15.11500359,"ECCENTRICITY":0.0004533,"INCLINATION":98.3778,"RA_OF_ASC_NODE":48.1225,"ARG_OF_PERICENTER":249.7402,"MEAN_ANOMALY":110.3338,"EPHEMERIS_TYPE":0,"CLASSIFICATION_TYPE":"U","NORAD_CAT_ID":40076,"ELEMENT_SET_NO":999,"REV_AT_EPOCH":63276,"BSTAR":0.0008387,"MEAN_MOTION_DOT":0.00014148,"MEAN_MOTION_DDOT":0},{"OBJECT_NAME":"TECHNOSAT","OBJECT_ID":"2017-042E","EPOCH":"2026-03-06T10:26:09.832992","MEAN_MOTION":15.04252312,"ECCENTRICITY":0.00197807,"INCLINATION":97.4152,"RA_OF_ASC_NODE":227.1244,"ARG_OF_PERICENTER":85.9326,"MEAN_ANOMALY":274.4161,"EPHEMERIS_TYPE":0,"CLASSIFICATION_TYPE":"U","NORAD_CAT_ID":42829,"ELEMENT_SET_NO":999,"REV_AT_EPOCH":47125,"BSTAR":0.00036781813,"MEAN_MOTION_DOT":5.08e-5,"MEAN_MOTION_DDOT":0}]
